[{"OBJECT_NAME":"STARLINK-37255","OBJECT_ID":"2026-070N","EPOCH":"2026-04-11T20:00:01.000224","MEAN_MOTION":15.96160202,"ECCENTRICITY":9.44e-5,"INCLINATION":53.1574,"RA_OF_ASC_NODE":218.5159,"ARG_OF_PERICENTER":45.502,"MEAN_ANOMALY":264.227,"EPHEMERIS_TYPE":0,"CLASSIFICATION_TYPE":"U","NORAD_CAT_ID":68554,"ELEMENT_SET_NO":999,"REV_AT_EPOCH":271,"BSTAR":-0.00257,"MEAN_MOTION_DOT":-0.01089651,"MEAN_MOTION_DDOT":0.00037269},{"OBJECT_NAME":"STARLINK-37146","OBJECT_ID":"2026-070P","EPOCH":"2026-04-11T20:00:01.000224","MEAN_MOTION":15.95953568,"ECCENTRICITY":9.36e-5,"INCLINATION":53.1576,"RA_OF_ASC_NODE":218.5275,"ARG_OF_PERICENTER":46.0793,"MEAN_ANOMALY":258.0754,"EPHEMERIS_TYPE":0,"CLASSIFICATION_TYPE":"U","NORAD_CAT_ID":68555,"ELEMENT_SET_NO":999,"REV_AT_EPOCH":271,"BSTAR":-0.0025956,"MEAN_MOTION_DOT":-0.0108822,"MEAN_MOTION_DDOT":0.00037102},{"OBJECT_NAME":"STARLINK-37144","OBJECT_ID":"2026-070Q","EPOCH":"2026-04-11T20:00:01.000224","MEAN_MOTION":15.96381346,"ECCENTRICITY":9.4e-5,"INCLINATION":53.1578,"RA_OF_ASC_NODE":218.503,"ARG_OF_PERICENTER":45.5762,"MEAN_ANOMALY":270.2697,"EPHEMERIS_TYPE":0,"CLASSIFICATION_TYPE":"U","NORAD_CAT_ID":68556,"ELEMENT_SET_NO":999,"REV_AT_EPOCH":271,"BSTAR":-0.0025673,"MEAN_MOTION_DOT":-0.01101608,"MEAN_MOTION_DDOT":0.00038101},{"OBJECT_NAME":"STARLINK-37210","OBJECT_ID":"2026-070R","EPOCH":"2026-04-11T20:00:01.000224","MEAN_MOTION":15.96274046,"ECCENTRICITY":9.31e-5,"INCLINATION":53.1577,"RA_OF_ASC_NODE":218.5096,"ARG_OF_PERICENTER":46.1837,"MEAN_ANOMALY":266.8558,"EPHEMERIS_TYPE":0,"CLASSIFICATION_TYPE":"U","NORAD_CAT_ID":68557,"ELEMENT_SET_NO":999,"REV_AT_EPOCH":271,"BSTAR":-0.0025681,"MEAN_MOTION_DOT":-0.01095595,"MEAN_MOTION_DDOT":0.00037683},{"OBJECT_NAME":"STARLINK-37227","OBJECT_ID":"2026-070S","EPOCH":"2026-04-11T20:00:01.000224","MEAN_MOTION":15.96491004,"ECCENTRICITY":9.31e-5,"INCLINATION":53.1575,"RA_OF_ASC_NODE":218.4972,"ARG_OF_PERICENTER":45.7263,"MEAN_ANOMALY":272.9528,"EPHEMERIS_TYPE":0,"CLASSIFICATION_TYPE":"U","NORAD_CAT_ID":68558,"ELEMENT_SET_NO":999,"REV_AT_EPOCH":271,"BSTAR":-0.0025772,"MEAN_MOTION_DOT":-0.0111238,"MEAN_MOTION_DDOT":0.00038823},{"OBJECT_NAME":"STARLINK-37294","OBJECT_ID":"2026-070T","EPOCH":"2026-04-11T20:00:01.000224","MEAN_MOTION":15.96610282,"ECCENTRICITY":8.84e-5,"INCLINATION":53.1577,"RA_OF_ASC_NODE":218.4908,"ARG_OF_PERICENTER":42.1419,"MEAN_ANOMALY":279.6604,"EPHEMERIS_TYPE":0,"CLASSIFICATION_TYPE":"U","NORAD_CAT_ID":68559,"ELEMENT_SET_NO":999,"REV_AT_EPOCH":271,"BSTAR":-0.00262,"MEAN_MOTION_DOT":-0.01137969,"MEAN_MOTION_DDOT":0.00040508},{"OBJECT_NAME":"STARLINK-37291","OBJECT_ID":"2026-070U","EPOCH":"2026-04-11T20:00:01.000224","MEAN_MOTION":15.96721154,"ECCENTRICITY":8.86e-5,"INCLINATION":53.1575,"RA_OF_ASC_NODE":218.4852,"ARG_OF_PERICENTER":41.5482,"MEAN_ANOMALY":282.9876,"EPHEMERIS_TYPE":0,"CLASSIFICATION_TYPE":"U","NORAD_CAT_ID":68560,"ELEMENT_SET_NO":999,"REV_AT_EPOCH":271,"BSTAR":-0.0026485,"MEAN_MOTION_DOT":-0.01157159,"MEAN_MOTION_DDOT":0.00041805},{"OBJECT_NAME":"STARLINK-37114","OBJECT_ID":"2026-070V","EPOCH":"2026-04-11T20:00:01.000224","MEAN_MOTION":15.96826507,"ECCENTRICITY":9.03e-5,"INCLINATION":53.1576,"RA_OF_ASC_NODE":218.48,"ARG_OF_PERICENTER":41.2699,"MEAN_ANOMALY":285.8249,"EPHEMERIS_TYPE":0,"CLASSIFICATION_TYPE":"U","NORAD_CAT_ID":68561,"ELEMENT_SET_NO":999,"REV_AT_EPOCH":271,"BSTAR":-0.0026675,"MEAN_MOTION_DOT":-0.01172062,"MEAN_MOTION_DDOT":0.00042835},{"OBJECT_NAME":"STARLINK-37233","OBJECT_ID":"2026-070W","EPOCH":"2026-04-11T20:00:01.000224","MEAN_MOTION":15.97048773,"ECCENTRICITY":8.85e-5,"INCLINATION":53.1576,"RA_OF_ASC_NODE":218.4682,"ARG_OF_PERICENTER":41.3762,"MEAN_ANOMALY":291.2679,"EPHEMERIS_TYPE":0,"CLASSIFICATION_TYPE":"U","NORAD_CAT_ID":68562,"ELEMENT_SET_NO":999,"REV_AT_EPOCH":271,"BSTAR":-0.002739,"MEAN_MOTION_DOT":-0.01217763,"MEAN_MOTION_DDOT":0.00046024},{"OBJECT_NAME":"STARLINK-36238","OBJECT_ID":"2026-070X","EPOCH":"2026-04-11T20:00:01.000224","MEAN_MOTION":15.96936067,"ECCENTRICITY":9.04e-5,"INCLINATION":53.1574,"RA_OF_ASC_NODE":218.4742,"ARG_OF_PERICENTER":42.0776,"MEAN_ANOMALY":287.7104,"EPHEMERIS_TYPE":0,"CLASSIFICATION_TYPE":"U","NORAD_CAT_ID":68563,"ELEMENT_SET_NO":999,"REV_AT_EPOCH":266,"BSTAR":-0.0026969,"MEAN_MOTION_DOT":-0.01191924,"MEAN_MOTION_DDOT":0.00044213},{"OBJECT_NAME":"STARLINK-37008","OBJECT_ID":"2026-070Y","EPOCH":"2026-04-11T20:00:01.000224","MEAN_MOTION":15.97160648,"ECCENTRICITY":8.97e-5,"INCLINATION":53.1575,"RA_OF_ASC_NODE":218.4624,"ARG_OF_PERICENTER":42.329,"MEAN_ANOMALY":293.2774,"EPHEMERIS_TYPE":0,"CLASSIFICATION_TYPE":"U","NORAD_CAT_ID":68564,"ELEMENT_SET_NO":999,"REV_AT_EPOCH":271,"BSTAR":-0.0027782,"MEAN_MOTION_DOT":-0.01242525,"MEAN_MOTION_DDOT":0.00047796},{"OBJECT_NAME":"STARLINK-37161","OBJECT_ID":"2026-070Z","EPOCH":"2026-04-11T20:00:01.000224","MEAN_MOTION":15.97266646,"ECCENTRICITY":8.9e-5,"INCLINATION":53.1573,"RA_OF_ASC_NODE":218.4563,"ARG_OF_PERICENTER":42.4257,"MEAN_ANOMALY":296.0191,"EPHEMERIS_TYPE":0,"CLASSIFICATION_TYPE":"U","NORAD_CAT_ID":68565,"ELEMENT_SET_NO":999,"REV_AT_EPOCH":271,"BSTAR":-0.0027992,"MEAN_MOTION_DOT":-0.01259053,"MEAN_MOTION_DDOT":0.00049014},{"OBJECT_NAME":"STARLINK-37212","OBJECT_ID":"2026-070AA","EPOCH":"2026-04-11T20:00:01.000224","MEAN_MOTION":15.97355889,"ECCENTRICITY":8.89e-5,"INCLINATION":53.1574,"RA_OF_ASC_NODE":218.4518,"ARG_OF_PERICENTER":42.3633,"MEAN_ANOMALY":298.1592,"EPHEMERIS_TYPE":0,"CLASSIFICATION_TYPE":"U","NORAD_CAT_ID":68566,"ELEMENT_SET_NO":999,"REV_AT_EPOCH":271,"BSTAR":-0.0027807,"MEAN_MOTION_DOT":-0.01256974,"MEAN_MOTION_DDOT":0.00048912},{"OBJECT_NAME":"STARLINK-37261","OBJECT_ID":"2026-070AB","EPOCH":"2026-04-11T20:00:01.000224","MEAN_MOTION":15.97463339,"ECCENTRICITY":8.89e-5,"INCLINATION":53.1573,"RA_OF_ASC_NODE":218.4451,"ARG_OF_PERICENTER":43.2632,"MEAN_ANOMALY":300.5237,"EPHEMERIS_TYPE":0,"CLASSIFICATION_TYPE":"U","NORAD_CAT_ID":68567,"ELEMENT_SET_NO":999,"REV_AT_EPOCH":271,"BSTAR":-0.0028018,"MEAN_MOTION_DOT":-0.01273859,"MEAN_MOTION_DDOT":0.00050171},{"OBJECT_NAME":"STARLINK-37283","OBJECT_ID":"2026-070AC","EPOCH":"2026-04-11T20:00:01.000224","MEAN_MOTION":15.91647219,"ECCENTRICITY":8.72e-5,"INCLINATION":53.1578,"RA_OF_ASC_NODE":218.6127,"ARG_OF_PERICENTER":47.557,"MEAN_ANOMALY":215.7509,"EPHEMERIS_TYPE":0,"CLASSIFICATION_TYPE":"U","NORAD_CAT_ID":68568,"ELEMENT_SET_NO":999,"REV_AT_EPOCH":271,"BSTAR":-0.0048627,"MEAN_MOTION_DOT":-0.01614942,"MEAN_MOTION_DDOT":0.00073007},{"OBJECT_NAME":"STARLINK-37256","OBJECT_ID":"2026-070AD","EPOCH":"2026-04-11T20:00:01.000224","MEAN_MOTION":15.91678278,"ECCENTRICITY":9.15e-5,"INCLINATION":53.1578,"RA_OF_ASC_NODE":218.6265,"ARG_OF_PERICENTER":47.162,"MEAN_ANOMALY":209.4205,"EPHEMERIS_TYPE":0,"CLASSIFICATION_TYPE":"U","NORAD_CAT_ID":68569,"ELEMENT_SET_NO":999,"REV_AT_EPOCH":271,"BSTAR":-0.0047471,"MEAN_MOTION_DOT":-0.01579526,"MEAN_MOTION_DDOT":0.00070119}]
