STARLINK-37255          
1 68554U 26070N   26101.83334491 -.01089651  37269-3 -25700-2 0  9996
2 68554  53.1574 218.5159 0000944  45.5020 264.2270 15.96160202  2714
STARLINK-37146          
1 68555U 26070P   26101.83334491 -.01088220  37102-3 -25956-2 0  9997
2 68555  53.1576 218.5275 0000936  46.0793 258.0754 15.95953568  2712
STARLINK-37144          
1 68556U 26070Q   26101.83334491 -.01101608  38101-3 -25673-2 0  9990
2 68556  53.1578 218.5030 0000940  45.5762 270.2697 15.96381346  2711
STARLINK-37210          
1 68557U 26070R   26101.83334491 -.01095595  37683-3 -25681-2 0  9991
2 68557  53.1577 218.5096 0000931  46.1837 266.8558 15.96274046  2718
STARLINK-37227          
1 68558U 26070S   26101.83334491 -.01112380  38823-3 -25772-2 0  9992
2 68558  53.1575 218.4972 0000931  45.7263 272.9528 15.96491004  2717
STARLINK-37294          
1 68559U 26070T   26101.83334491 -.01137969  40508-3 -26200-2 0  9993
2 68559  53.1577 218.4908 0000884  42.1419 279.6604 15.96610282  2710
STARLINK-37291          
1 68560U 26070U   26101.83334491 -.01157159  41805-3 -26485-2 0  9994
2 68560  53.1575 218.4852 0000886  41.5482 282.9876 15.96721154  2712
STARLINK-37114          
1 68561U 26070V   26101.83334491 -.01172062  42835-3 -26675-2 0  9990
2 68561  53.1576 218.4800 0000903  41.2699 285.8249 15.96826507  2718
STARLINK-37233          
1 68562U 26070W   26101.83334491 -.01217763  46024-3 -27390-2 0  9998
2 68562  53.1576 218.4682 0000885  41.3762 291.2679 15.97048773  2718
STARLINK-36238          
1 68563U 26070X   26101.83334491 -.01191924  44213-3 -26969-2 0  9998
2 68563  53.1574 218.4742 0000904  42.0776 287.7104 15.96936067  2667
STARLINK-37008          
1 68564U 26070Y   26101.83334491 -.01242525  47796-3 -27782-2 0  9996
2 68564  53.1575 218.4624 0000897  42.3290 293.2774 15.97160648  2719
STARLINK-37161          
1 68565U 26070Z   26101.83334491 -.01259053  49014-3 -27992-2 0  9999
2 68565  53.1573 218.4563 0000890  42.4257 296.0191 15.97266646  2716
STARLINK-37212          
1 68566U 26070AA  26101.83334491 -.01256974  48912-3 -27807-2 0  9990
2 68566  53.1574 218.4518 0000889  42.3633 298.1592 15.97355889  2719
STARLINK-37261          
1 68567U 26070AB  26101.83334491 -.01273859  50171-3 -28018-2 0  9997
2 68567  53.1573 218.4451 0000889  43.2632 300.5237 15.97463339  2718
STARLINK-37283          
1 68568U 26070AC  26101.83334491 -.01614942  73007-3 -48627-2 0  9991
2 68568  53.1578 218.6127 0000872  47.5570 215.7509 15.91647219  2710
STARLINK-37256          
1 68569U 26070AD  26101.83334491 -.01579526  70119-3 -47471-2 0  9997
2 68569  53.1578 218.6265 0000915  47.1620 209.4205 15.91678278  2716
